<?xml version="1.0" encoding="UTF-8"?>
<ndm xmlns:xsi="http://www.w3.org/2001/XMLSchema-instance" xsi:noNamespaceSchemaLocation="https://sanaregistry.org/r/ndmxml_unqualified/ndmxml-2.0.0-master-2.0.xsd">
<omm id="CCSDS_OMM_VERS" version="2.0">
<header><CREATION_DATE/><ORIGINATOR/></header><body><segment><metadata><OBJECT_NAME>ONEWEB-0056</OBJECT_NAME><OBJECT_ID>2020-008AE</OBJECT_ID><CENTER_NAME>EARTH</CENTER_NAME><REF_FRAME>TEME</REF_FRAME><TIME_SYSTEM>UTC</TIME_SYSTEM><MEAN_ELEMENT_THEORY>SGP4</MEAN_ELEMENT_THEORY></metadata><data><meanElements><EPOCH>2025-07-27T14:53:41.275104</EPOCH><MEAN_MOTION>13.10370589</MEAN_MOTION><ECCENTRICITY>.0001823</ECCENTRICITY><INCLINATION>87.8802</INCLINATION><RA_OF_ASC_NODE>100.9979</RA_OF_ASC_NODE><ARG_OF_PERICENTER>78.4768</ARG_OF_PERICENTER><MEAN_ANOMALY>281.6564</MEAN_ANOMALY></meanElements><tleParameters><EPHEMERIS_TYPE>0</EPHEMERIS_TYPE><CLASSIFICATION_TYPE>U</CLASSIFICATION_TYPE><NORAD_CAT_ID>45159</NORAD_CAT_ID><ELEMENT_SET_NO>999</ELEMENT_SET_NO><REV_AT_EPOCH>26567</REV_AT_EPOCH><BSTAR>.16089E-2</BSTAR><MEAN_MOTION_DOT>.574E-5</MEAN_MOTION_DOT><MEAN_MOTION_DDOT>0</MEAN_MOTION_DDOT></tleParameters></data></segment></body></omm>
<omm id="CCSDS_OMM_VERS" version="2.0">
<header><CREATION_DATE/><ORIGINATOR/></header><body><segment><metadata><OBJECT_NAME>ONEWEB-0057</OBJECT_NAME><OBJECT_ID>2020-008AF</OBJECT_ID><CENTER_NAME>EARTH</CENTER_NAME><REF_FRAME>TEME</REF_FRAME><TIME_SYSTEM>UTC</TIME_SYSTEM><MEAN_ELEMENT_THEORY>SGP4</MEAN_ELEMENT_THEORY></metadata><data><meanElements><EPOCH>2025-07-27T11:24:32.514912</EPOCH><MEAN_MOTION>13.10370621</MEAN_MOTION><ECCENTRICITY>.0001805</ECCENTRICITY><INCLINATION>87.8801</INCLINATION><RA_OF_ASC_NODE>101.0407</RA_OF_ASC_NODE><ARG_OF_PERICENTER>83.3078</ARG_OF_PERICENTER><MEAN_ANOMALY>276.8254</MEAN_ANOMALY></meanElements><tleParameters><EPHEMERIS_TYPE>0</EPHEMERIS_TYPE><CLASSIFICATION_TYPE>U</CLASSIFICATION_TYPE><NORAD_CAT_ID>45160</NORAD_CAT_ID><ELEMENT_SET_NO>999</ELEMENT_SET_NO><REV_AT_EPOCH>26582</REV_AT_EPOCH><BSTAR>.70886E-3</BSTAR><MEAN_MOTION_DOT>.26E-5</MEAN_MOTION_DOT><MEAN_MOTION_DDOT>0</MEAN_MOTION_DDOT></tleParameters></data></segment></body></omm>
<omm id="CCSDS_OMM_VERS" version="2.0">
<header><CREATION_DATE/><ORIGINATOR/></header><body><segment><metadata><OBJECT_NAME>ONEWEB-0058</OBJECT_NAME><OBJECT_ID>2020-008AG</OBJECT_ID><CENTER_NAME>EARTH</CENTER_NAME><REF_FRAME>TEME</REF_FRAME><TIME_SYSTEM>UTC</TIME_SYSTEM><MEAN_ELEMENT_THEORY>SGP4</MEAN_ELEMENT_THEORY></metadata><data><meanElements><EPOCH>2025-07-27T11:05:37.543776</EPOCH><MEAN_MOTION>13.10373715</MEAN_MOTION><ECCENTRICITY>.0001976</ECCENTRICITY><INCLINATION>87.8800</INCLINATION><RA_OF_ASC_NODE>101.0543</RA_OF_ASC_NODE><ARG_OF_PERICENTER>76.0628</ARG_OF_PERICENTER><MEAN_ANOMALY>284.0719</MEAN_ANOMALY></meanElements><tleParameters><EPHEMERIS_TYPE>0</EPHEMERIS_TYPE><CLASSIFICATION_TYPE>U</CLASSIFICATION_TYPE><NORAD_CAT_ID>45161</NORAD_CAT_ID><ELEMENT_SET_NO>999</ELEMENT_SET_NO><REV_AT_EPOCH>26589</REV_AT_EPOCH><BSTAR>.20912E-2</BSTAR><MEAN_MOTION_DOT>.743E-5</MEAN_MOTION_DOT><MEAN_MOTION_DDOT>0</MEAN_MOTION_DDOT></tleParameters></data></segment></body></omm>
<omm id="CCSDS_OMM_VERS" version="2.0">
<header><CREATION_DATE/><ORIGINATOR/></header><body><segment><metadata><OBJECT_NAME>ONEWEB-0059</OBJECT_NAME><OBJECT_ID>2020-008AH</OBJECT_ID><CENTER_NAME>EARTH</CENTER_NAME><REF_FRAME>TEME</REF_FRAME><TIME_SYSTEM>UTC</TIME_SYSTEM><MEAN_ELEMENT_THEORY>SGP4</MEAN_ELEMENT_THEORY></metadata><data><meanElements><EPOCH>2025-07-27T18:20:27.649824</EPOCH><MEAN_MOTION>13.10375424</MEAN_MOTION><ECCENTRICITY>.000196</ECCENTRICITY><INCLINATION>87.8806</INCLINATION><RA_OF_ASC_NODE>100.9929</RA_OF_ASC_NODE><ARG_OF_PERICENTER>75.0296</ARG_OF_PERICENTER><MEAN_ANOMALY>285.1048</MEAN_ANOMALY></meanElements><tleParameters><EPHEMERIS_TYPE>0</EPHEMERIS_TYPE><CLASSIFICATION_TYPE>U</CLASSIFICATION_TYPE><NORAD_CAT_ID>45162</NORAD_CAT_ID><ELEMENT_SET_NO>999</ELEMENT_SET_NO><REV_AT_EPOCH>26657</REV_AT_EPOCH><BSTAR>.1938E-2</BSTAR><MEAN_MOTION_DOT>.689E-5</MEAN_MOTION_DOT><MEAN_MOTION_DDOT>0</MEAN_MOTION_DDOT></tleParameters></data></segment></body></omm>
<omm id="CCSDS_OMM_VERS" version="2.0">
<header><CREATION_DATE/><ORIGINATOR/></header><body><segment><metadata><OBJECT_NAME>ONEWEB-0062</OBJECT_NAME><OBJECT_ID>2020-008AJ</OBJECT_ID><CENTER_NAME>EARTH</CENTER_NAME><REF_FRAME>TEME</REF_FRAME><TIME_SYSTEM>UTC</TIME_SYSTEM><MEAN_ELEMENT_THEORY>SGP4</MEAN_ELEMENT_THEORY></metadata><data><meanElements><EPOCH>2025-07-27T15:17:34.893024</EPOCH><MEAN_MOTION>13.10369679</MEAN_MOTION><ECCENTRICITY>.000181</ECCENTRICITY><INCLINATION>87.8799</INCLINATION><RA_OF_ASC_NODE>100.9978</RA_OF_ASC_NODE><ARG_OF_PERICENTER>66.2060</ARG_OF_PERICENTER><MEAN_ANOMALY>293.9257</MEAN_ANOMALY></meanElements><tleParameters><EPHEMERIS_TYPE>0</EPHEMERIS_TYPE><CLASSIFICATION_TYPE>U</CLASSIFICATION_TYPE><NORAD_CAT_ID>45163</NORAD_CAT_ID><ELEMENT_SET_NO>999</ELEMENT_SET_NO><REV_AT_EPOCH>26568</REV_AT_EPOCH><BSTAR>-.65635E-3</BSTAR><MEAN_MOTION_DOT>-.216E-5</MEAN_MOTION_DOT><MEAN_MOTION_DDOT>0</MEAN_MOTION_DDOT></tleParameters></data></segment></body></omm>
<omm id="CCSDS_OMM_VERS" version="2.0">
<header><CREATION_DATE/><ORIGINATOR/></header><body><segment><metadata><OBJECT_NAME>ONEWEB-0065</OBJECT_NAME><OBJECT_ID>2020-008AK</OBJECT_ID><CENTER_NAME>EARTH</CENTER_NAME><REF_FRAME>TEME</REF_FRAME><TIME_SYSTEM>UTC</TIME_SYSTEM><MEAN_ELEMENT_THEORY>SGP4</MEAN_ELEMENT_THEORY></metadata><data><meanElements><EPOCH>2025-07-27T18:27:44.353440</EPOCH><MEAN_MOTION>13.10372952</MEAN_MOTION><ECCENTRICITY>.0001588</ECCENTRICITY><INCLINATION>87.8806</INCLINATION><RA_OF_ASC_NODE>100.9956</RA_OF_ASC_NODE><ARG_OF_PERICENTER>87.2277</ARG_OF_PERICENTER><MEAN_ANOMALY>272.9032</MEAN_ANOMALY></meanElements><tleParameters><EPHEMERIS_TYPE>0</EPHEMERIS_TYPE><CLASSIFICATION_TYPE>U</CLASSIFICATION_TYPE><NORAD_CAT_ID>45164</NORAD_CAT_ID><ELEMENT_SET_NO>999</ELEMENT_SET_NO><REV_AT_EPOCH>26613</REV_AT_EPOCH><BSTAR>.18239E-2</BSTAR><MEAN_MOTION_DOT>.649E-5</MEAN_MOTION_DOT><MEAN_MOTION_DDOT>0</MEAN_MOTION_DDOT></tleParameters></data></segment></body></omm>
<omm id="CCSDS_OMM_VERS" version="2.0">
<header><CREATION_DATE/><ORIGINATOR/></header><body><segment><metadata><OBJECT_NAME>ONEWEB-0066</OBJECT_NAME><OBJECT_ID>2020-020A</OBJECT_ID><CENTER_NAME>EARTH</CENTER_NAME><REF_FRAME>TEME</REF_FRAME><TIME_SYSTEM>UTC</TIME_SYSTEM><MEAN_ELEMENT_THEORY>SGP4</MEAN_ELEMENT_THEORY></metadata><data><meanElements><EPOCH>2025-07-27T21:15:01.880352</EPOCH><MEAN_MOTION>13.11416844</MEAN_MOTION><ECCENTRICITY>.0001977</ECCENTRICITY><INCLINATION>87.8809</INCLINATION><RA_OF_ASC_NODE>85.6990</RA_OF_ASC_NODE><ARG_OF_PERICENTER>84.5817</ARG_OF_PERICENTER><MEAN_ANOMALY>275.5537</MEAN_ANOMALY></meanElements><tleParameters><EPHEMERIS_TYPE>0</EPHEMERIS_TYPE><CLASSIFICATION_TYPE>U</CLASSIFICATION_TYPE><NORAD_CAT_ID>45424</NORAD_CAT_ID><ELEMENT_SET_NO>999</ELEMENT_SET_NO><REV_AT_EPOCH>26018</REV_AT_EPOCH><BSTAR>.13233E-2</BSTAR><MEAN_MOTION_DOT>.482E-5</MEAN_MOTION_DOT><MEAN_MOTION_DDOT>0</MEAN_MOTION_DDOT></tleParameters></data></segment></body></omm>
<omm id="CCSDS_OMM_VERS" version="2.0">
<header><CREATION_DATE/><ORIGINATOR/></header><body><segment><metadata><OBJECT_NAME>ONEWEB-0067</OBJECT_NAME><OBJECT_ID>2020-020B</OBJECT_ID><CENTER_NAME>EARTH</CENTER_NAME><REF_FRAME>TEME</REF_FRAME><TIME_SYSTEM>UTC</TIME_SYSTEM><MEAN_ELEMENT_THEORY>SGP4</MEAN_ELEMENT_THEORY></metadata><data><meanElements><EPOCH>2025-07-27T14:49:25.906080</EPOCH><MEAN_MOTION>13.11418557</MEAN_MOTION><ECCENTRICITY>.0001923</ECCENTRICITY><INCLINATION>87.8805</INCLINATION><RA_OF_ASC_NODE>85.6635</RA_OF_ASC_NODE><ARG_OF_PERICENTER>84.8599</ARG_OF_PERICENTER><MEAN_ANOMALY>275.2749</MEAN_ANOMALY></meanElements><tleParameters><EPHEMERIS_TYPE>0</EPHEMERIS_TYPE><CLASSIFICATION_TYPE>U</CLASSIFICATION_TYPE><NORAD_CAT_ID>45425</NORAD_CAT_ID><ELEMENT_SET_NO>999</ELEMENT_SET_NO><REV_AT_EPOCH>26019</REV_AT_EPOCH><BSTAR>-.11143E-2</BSTAR><MEAN_MOTION_DOT>-.382E-5</MEAN_MOTION_DOT><MEAN_MOTION_DDOT>0</MEAN_MOTION_DDOT></tleParameters></data></segment></body></omm>

</ndm>
