ONEWEB-0056             
1 45159U 20008AE  25208.62061661  .00000574  00000+0  16089-2 0  9990
2 45159  87.8802 100.9979 0001823  78.4768 281.6564 13.10370589265673
ONEWEB-0057             
1 45160U 20008AF  25208.47537633  .00000260  00000+0  70886-3 0  9990
2 45160  87.8801 101.0407 0001805  83.3078 276.8254 13.10370621265827
ONEWEB-0058             
1 45161U 20008AG  25208.46224009  .00000743  00000+0  20912-2 0  9990
2 45161  87.8800 101.0543 0001976  76.0628 284.0719 13.10373715265898
ONEWEB-0059             
1 45162U 20008AH  25208.76420891  .00000689  00000+0  19380-2 0  9997
2 45162  87.8806 100.9929 0001960  75.0296 285.1048 13.10375424266576
ONEWEB-0062             
1 45163U 20008AJ  25208.63720941 -.00000216  00000+0 -65635-3 0  9996
2 45163  87.8799 100.9978 0001810  66.2060 293.9257 13.10369679265682
ONEWEB-0065             
1 45164U 20008AK  25208.76926335  .00000649  00000+0  18239-2 0  9991
2 45164  87.8806 100.9956 0001588  87.2277 272.9032 13.10372952266130
ONEWEB-0066             
1 45424U 20020A   25208.88543843  .00000482  00000+0  13233-2 0  9990
2 45424  87.8809  85.6990 0001977  84.5817 275.5537 13.11416844260189
ONEWEB-0067             
1 45425U 20020B   25208.61766095 -.00000382  00000+0 -11143-2 0  9997
2 45425  87.8805  85.6635 0001923  84.8599 275.2749 13.11418557260199
